SL-16 R/B               
1 22566U 93016B   25363.17312717  .00000147  00000+0  99906-4 0  9996
2 22566  71.0086   3.2877 0008052  64.5577 295.6378 14.15294913692197
COSMOS 2242             
1 22626U 93024A   25363.28900914  .00003242  00000+0  28487-3 0  9990
2 22626  82.5195 334.0258 0016312 175.7776 184.3587 14.96181284769864
SL-16 R/B               
1 22803U 93059B   25362.89539514  .00000214  00000+0  12944-3 0  9992
2 22803  70.9892 160.4179 0018801 312.8931  47.0614 14.17218245669508
ARIANE 40 R/B           
1 22830U 93061H   25363.16873609  .00000396  00000+0  16085-3 0  9993
2 22830  98.5055  68.3981 0011659 129.9558 230.2652 14.32813165684007
COSMOS 2278             
1 23087U 94023A   25363.29776366  .00000281  00000+0  17145-3 0  9994
2 23087  71.0537 322.3676 0007648 149.5645 210.5924 14.14350480634852
SL-16 R/B               
1 23088U 94023B   25363.02276330 -.00000093  00000+0 -23133-4 0  9990
2 23088  70.9971 219.2918 0002271   1.1959 358.9169 14.14998595636095
SL-16 R/B               
1 23343U 94074B   25363.11279186  .00000744  00000+0  10654-3 0  9996
2 23343  97.7187  31.7653 0008053  91.2823 336.1877 14.79309592676814
SL-16 R/B               
1 23405U 94077B   25362.81994534 -.00000235  00000+0 -95511-4 0  9998
2 23405  70.9825 141.5854 0005038 271.6847  88.3699 14.15551098606202
ARIANE 40+ R/B          
1 23561U 95021B   25363.13229505  .00000466  00000+0  16276-3 0  9990
2 23561  98.4631  70.5219 0006600   3.3350  26.4544 14.39708843609096
SL-16 R/B               
1 23705U 95058B   25363.10612119  .00000063  00000+0  56338-4 0  9991
2 23705  71.0218 328.4424 0014459 233.3214 126.6581 14.15481614557861
SL-16 R/B               
1 24298U 96051B   25363.27346201  .00000021  00000+0  37846-4 0  9994
2 24298  70.7597 324.2862 0019434 241.0753 118.8418 14.12398149511709
ORBVIEW 2 (SEASTAR)     
1 24883U 97037A   25363.01728640  .00000493  00000+0  18771-3 0  9990
2 24883  98.8466 160.5024 0001200 265.3465  94.7583 14.35429849498332
