CCSDS_OMM_VERS = 2.0
CREATION_DATE  = 
ORIGINATOR     = 

OBJECT_NAME    = SL-16 R/B
OBJECT_ID      = 1993-016B
CENTER_NAME    = EARTH
REF_FRAME      = TEME
TIME_SYSTEM    = UTC
MEAN_ELEMENT_THEORY = SGP/SGP4

EPOCH          = 2025-12-29T04:09:18.187488
MEAN_MOTION    = 14.15294913
ECCENTRICITY   = .00080522
INCLINATION    = 71.0086
RA_OF_ASC_NODE = 3.2877
ARG_OF_PERICENTER = 64.5577
MEAN_ANOMALY   = 295.6378

EPHEMERIS_TYPE = 0
CLASSIFICATION_TYPE = U
NORAD_CAT_ID   = 22566
ELEMENT_SET_NO = 999
REV_AT_EPOCH   = 69219
BSTAR          = .99905982E-4
MEAN_MOTION_DOT = .147E-5
MEAN_MOTION_DDOT = 0

CCSDS_OMM_VERS = 2.0
CREATION_DATE  = 
ORIGINATOR     = 

OBJECT_NAME    = COSMOS 2242
OBJECT_ID      = 1993-024A
CENTER_NAME    = EARTH
REF_FRAME      = TEME
TIME_SYSTEM    = UTC
MEAN_ELEMENT_THEORY = SGP/SGP4

EPOCH          = 2025-12-29T06:56:10.389696
MEAN_MOTION    = 14.96181284
ECCENTRICITY   = .00163129
INCLINATION    = 82.5195
RA_OF_ASC_NODE = 334.0258
ARG_OF_PERICENTER = 175.7776
MEAN_ANOMALY   = 184.3587

EPHEMERIS_TYPE = 0
CLASSIFICATION_TYPE = U
NORAD_CAT_ID   = 22626
ELEMENT_SET_NO = 999
REV_AT_EPOCH   = 76986
BSTAR          = .28487286E-3
MEAN_MOTION_DOT = .3242E-4
MEAN_MOTION_DDOT = 0

CCSDS_OMM_VERS = 2.0
CREATION_DATE  = 
ORIGINATOR     = 

OBJECT_NAME    = SL-16 R/B
OBJECT_ID      = 1993-059B
CENTER_NAME    = EARTH
REF_FRAME      = TEME
TIME_SYSTEM    = UTC
MEAN_ELEMENT_THEORY = SGP/SGP4

EPOCH          = 2025-12-28T21:29:22.140096
MEAN_MOTION    = 14.17218245
ECCENTRICITY   = .00188019
INCLINATION    = 70.9892
RA_OF_ASC_NODE = 160.4179
ARG_OF_PERICENTER = 312.8931
MEAN_ANOMALY   = 47.0614

EPHEMERIS_TYPE = 0
CLASSIFICATION_TYPE = U
NORAD_CAT_ID   = 22803
ELEMENT_SET_NO = 999
REV_AT_EPOCH   = 66950
BSTAR          = .12944001E-3
MEAN_MOTION_DOT = .214E-5
MEAN_MOTION_DDOT = 0

CCSDS_OMM_VERS = 2.0
CREATION_DATE  = 
ORIGINATOR     = 

OBJECT_NAME    = ARIANE 40 R/B
OBJECT_ID      = 1993-061H
CENTER_NAME    = EARTH
REF_FRAME      = TEME
TIME_SYSTEM    = UTC
MEAN_ELEMENT_THEORY = SGP/SGP4

EPOCH          = 2025-12-29T04:02:58.798176
MEAN_MOTION    = 14.32813165
ECCENTRICITY   = .00116593
INCLINATION    = 98.5055
RA_OF_ASC_NODE = 68.3981
ARG_OF_PERICENTER = 129.9558
MEAN_ANOMALY   = 230.2652

EPHEMERIS_TYPE = 0
CLASSIFICATION_TYPE = U
NORAD_CAT_ID   = 22830
ELEMENT_SET_NO = 999
REV_AT_EPOCH   = 68400
BSTAR          = .16084954E-3
MEAN_MOTION_DOT = .396E-5
MEAN_MOTION_DDOT = 0

CCSDS_OMM_VERS = 2.0
CREATION_DATE  = 
ORIGINATOR     = 

OBJECT_NAME    = COSMOS 2278
OBJECT_ID      = 1994-023A
CENTER_NAME    = EARTH
REF_FRAME      = TEME
TIME_SYSTEM    = UTC
MEAN_ELEMENT_THEORY = SGP/SGP4

EPOCH          = 2025-12-29T07:08:46.780224
MEAN_MOTION    = 14.14350480
ECCENTRICITY   = .00076488
INCLINATION    = 71.0537
RA_OF_ASC_NODE = 322.3676
ARG_OF_PERICENTER = 149.5645
MEAN_ANOMALY   = 210.5924

EPHEMERIS_TYPE = 0
CLASSIFICATION_TYPE = U
NORAD_CAT_ID   = 23087
ELEMENT_SET_NO = 999
REV_AT_EPOCH   = 63485
BSTAR          = .17145045E-3
MEAN_MOTION_DOT = .281E-5
MEAN_MOTION_DDOT = 0

CCSDS_OMM_VERS = 2.0
CREATION_DATE  = 
ORIGINATOR     = 

OBJECT_NAME    = SL-16 R/B
OBJECT_ID      = 1994-023B
CENTER_NAME    = EARTH
REF_FRAME      = TEME
TIME_SYSTEM    = UTC
MEAN_ELEMENT_THEORY = SGP/SGP4

EPOCH          = 2025-12-29T00:32:46.749120
MEAN_MOTION    = 14.14998595
ECCENTRICITY   = .00022719
INCLINATION    = 70.9971
RA_OF_ASC_NODE = 219.2918
ARG_OF_PERICENTER = 1.1959
MEAN_ANOMALY   = 358.9169

EPHEMERIS_TYPE = 0
CLASSIFICATION_TYPE = U
NORAD_CAT_ID   = 23088
ELEMENT_SET_NO = 999
REV_AT_EPOCH   = 63609
BSTAR          = -.23133155E-4
MEAN_MOTION_DOT = -.93E-6
MEAN_MOTION_DDOT = 0

CCSDS_OMM_VERS = 2.0
CREATION_DATE  = 
ORIGINATOR     = 

OBJECT_NAME    = SL-16 R/B
OBJECT_ID      = 1994-074B
CENTER_NAME    = EARTH
REF_FRAME      = TEME
TIME_SYSTEM    = UTC
MEAN_ELEMENT_THEORY = SGP/SGP4

EPOCH          = 2025-12-29T02:42:25.216704
MEAN_MOTION    = 14.79309592
ECCENTRICITY   = .00080536
INCLINATION    = 97.7187
RA_OF_ASC_NODE = 31.7653
ARG_OF_PERICENTER = 91.2823
MEAN_ANOMALY   = 336.1877

EPHEMERIS_TYPE = 0
CLASSIFICATION_TYPE = U
NORAD_CAT_ID   = 23343
ELEMENT_SET_NO = 999
REV_AT_EPOCH   = 67681
BSTAR          = .10654086E-3
MEAN_MOTION_DOT = .744E-5
MEAN_MOTION_DDOT = 0

CCSDS_OMM_VERS = 2.0
CREATION_DATE  = 
ORIGINATOR     = 

OBJECT_NAME    = SL-16 R/B
OBJECT_ID      = 1994-077B
CENTER_NAME    = EARTH
REF_FRAME      = TEME
TIME_SYSTEM    = UTC
MEAN_ELEMENT_THEORY = SGP/SGP4

EPOCH          = 2025-12-28T19:40:43.277376
MEAN_MOTION    = 14.15551098
ECCENTRICITY   = .00050387
INCLINATION    = 70.9825
RA_OF_ASC_NODE = 141.5854
ARG_OF_PERICENTER = 271.6847
MEAN_ANOMALY   = 88.3699

EPHEMERIS_TYPE = 0
CLASSIFICATION_TYPE = U
NORAD_CAT_ID   = 23405
ELEMENT_SET_NO = 999
REV_AT_EPOCH   = 60620
BSTAR          = -.95511488E-4
MEAN_MOTION_DOT = -.235E-5
MEAN_MOTION_DDOT = 0

CCSDS_OMM_VERS = 2.0
CREATION_DATE  = 
ORIGINATOR     = 

OBJECT_NAME    = ARIANE 40+ R/B
OBJECT_ID      = 1995-021B
CENTER_NAME    = EARTH
REF_FRAME      = TEME
TIME_SYSTEM    = UTC
MEAN_ELEMENT_THEORY = SGP/SGP4

EPOCH          = 2025-12-29T03:10:30.292320
MEAN_MOTION    = 14.39708843
ECCENTRICITY   = .00066007
INCLINATION    = 98.4631
RA_OF_ASC_NODE = 70.5219
ARG_OF_PERICENTER = 3.3350
MEAN_ANOMALY   = 26.4544

EPHEMERIS_TYPE = 0
CLASSIFICATION_TYPE = U
NORAD_CAT_ID   = 23561
ELEMENT_SET_NO = 999
REV_AT_EPOCH   = 60909
BSTAR          = .16276377E-3
MEAN_MOTION_DOT = .466E-5
MEAN_MOTION_DDOT = 0

CCSDS_OMM_VERS = 2.0
CREATION_DATE  = 
ORIGINATOR     = 

OBJECT_NAME    = SL-16 R/B
OBJECT_ID      = 1995-058B
CENTER_NAME    = EARTH
REF_FRAME      = TEME
TIME_SYSTEM    = UTC
MEAN_ELEMENT_THEORY = SGP/SGP4

EPOCH          = 2025-12-29T02:32:48.870816
MEAN_MOTION    = 14.15481614
ECCENTRICITY   = .00144592
INCLINATION    = 71.0218
RA_OF_ASC_NODE = 328.4424
ARG_OF_PERICENTER = 233.3214
MEAN_ANOMALY   = 126.6581

EPHEMERIS_TYPE = 0
CLASSIFICATION_TYPE = U
NORAD_CAT_ID   = 23705
ELEMENT_SET_NO = 999
REV_AT_EPOCH   = 55786
BSTAR          = .56337829E-4
MEAN_MOTION_DOT = .63E-6
MEAN_MOTION_DDOT = 0

CCSDS_OMM_VERS = 2.0
CREATION_DATE  = 
ORIGINATOR     = 

OBJECT_NAME    = SL-16 R/B
OBJECT_ID      = 1996-051B
CENTER_NAME    = EARTH
REF_FRAME      = TEME
TIME_SYSTEM    = UTC
MEAN_ELEMENT_THEORY = SGP/SGP4

EPOCH          = 2025-12-29T06:33:47.117664
MEAN_MOTION    = 14.12398149
ECCENTRICITY   = .0019434
INCLINATION    = 70.7597
RA_OF_ASC_NODE = 324.2862
ARG_OF_PERICENTER = 241.0753
MEAN_ANOMALY   = 118.8418

EPHEMERIS_TYPE = 0
CLASSIFICATION_TYPE = U
NORAD_CAT_ID   = 24298
ELEMENT_SET_NO = 999
REV_AT_EPOCH   = 51170
BSTAR          = .37846267E-4
MEAN_MOTION_DOT = .21E-6
MEAN_MOTION_DDOT = 0

CCSDS_OMM_VERS = 2.0
CREATION_DATE  = 
ORIGINATOR     = 

OBJECT_NAME    = ORBVIEW 2 (SEASTAR)
OBJECT_ID      = 1997-037A
CENTER_NAME    = EARTH
REF_FRAME      = TEME
TIME_SYSTEM    = UTC
MEAN_ELEMENT_THEORY = SGP/SGP4

EPOCH          = 2025-12-29T00:24:53.544960
MEAN_MOTION    = 14.35429849
ECCENTRICITY   = .00012005
INCLINATION    = 98.8466
RA_OF_ASC_NODE = 160.5024
ARG_OF_PERICENTER = 265.3465
MEAN_ANOMALY   = 94.7583

EPHEMERIS_TYPE = 0
CLASSIFICATION_TYPE = U
NORAD_CAT_ID   = 24883
ELEMENT_SET_NO = 999
REV_AT_EPOCH   = 49833
BSTAR          = .18771175E-3
MEAN_MOTION_DOT = .493E-5
MEAN_MOTION_DDOT = 0

